[{"OBJECT_NAME":"STARLINK-5214","OBJECT_ID":"2022-175E","EPOCH":"2026-03-09T22:13:12.468864","MEAN_MOTION":15.08845997,"ECCENTRICITY":0.00014905,"INCLINATION":53.2188,"RA_OF_ASC_NODE":43.1341,"ARG_OF_PERICENTER":100.2873,"MEAN_ANOMALY":259.8287,"EPHEMERIS_TYPE":0,"CLASSIFICATION_TYPE":"U","NORAD_CAT_ID":54762,"ELEMENT_SET_NO":999,"REV_AT_EPOCH":17995,"BSTAR":-4.3046126e-5,"MEAN_MOTION_DOT":-9.73e-6,"MEAN_MOTION_DDOT":0},{"OBJECT_NAME":"OBJECT J","OBJECT_ID":"2017-042J","EPOCH":"2026-03-09T23:17:19.167936","MEAN_MOTION":15.08203331,"ECCENTRICITY":0.00078186,"INCLINATION":97.4246,"RA_OF_ASC_NODE":235.0467,"ARG_OF_PERICENTER":81.5059,"MEAN_ANOMALY":278.7055,"EPHEMERIS_TYPE":0,"CLASSIFICATION_TYPE":"U","NORAD_CAT_ID":42833,"ELEMENT_SET_NO":999,"REV_AT_EPOCH":47205,"BSTAR":0.00039182004,"MEAN_MOTION_DOT":6.006e-5,"MEAN_MOTION_DDOT":0}]
